{"By Countries":{"ARG":36,"BRA":9,"USA":125},"By Sites Codes":{"1120":{"totalCases":1,"postalCode":"GA 31406","city":"Savannah","latitude":"32.008920","siteName":"Meridian Clinical Research, LLC","investigator":"Paul Bradley","address":"340 Eisenhower Dr, Ste 1200","longitude":"-81.106783"},"1109":{"investigator":"Bruce Rankin","siteName":"DeLand Clinical Research Unit","latitude":"29.044612","address":"860 Peachwood Dr","longitude":"-81.314699","totalCases":6,"postalCode":"FLORIDA 32720","city":"DeLand"},"1163":{"city":"Metairie","postalCode":"Louisiana 70006","totalCases":2,"longitude":"-90.184251","address":"4517 Veterans Memorial Blvd","latitude":"30.006103","siteName":"Benchmark Research","investigator":"George Bauer"},"1018":{"longitude":"-95.474237","address":"6550 Mapleridge St, Ste 201, 206, 216, 220","latitude":"29.709729","siteName":"Texas Center for Drug Development, Inc","investigator":"Veronica Fragoso","city":"San Antonio","postalCode":"TEXAS 77081","totalCases":1},"1116":{"address":"15190 Community Rd., Ste 350","longitude":"-89.093605","investigator":"Paul Matherne","latitude":"30.443989","siteName":"MedPharmics, LLC","postalCode":"MISSISSIPI 39503","city":"Gulfport","totalCases":1},"1079":{"city":"Cary","postalCode":"NC 27518","totalCases":2,"address":"530 New Waverly Place, Ste 200A","longitude":"-78.776400","siteName":"PMG Research of Raleigh, LLC, d/b/a PMG","latitude":"35.737095","investigator":"George Raad"},"1037":{"totalCases":2,"postalCode":"TN 38119","city":"Memphis","investigator":"Lisa Usdan","latitude":"35.099988","siteName":"Clinical Neuroscience Solutions, Inc.","longitude":"-89.849212","address":"6401 poplar Ave, Ste 420"},"1038":{"postalCode":"TX 78726","city":"Austin","totalCases":1,"longitude":"-82.250162","address":"240 Medical Park Blvd, Ste 2600","siteName":"Holston Medical Group","latitude":"36.585121","investigator":"Rick Whiles"},"1152":{"address":"4180 Ruffin Rd, Ste 255","longitude":"-117.124983","latitude":"32.817426","siteName":"California Research Foundation","investigator":"Donald Branson","city":"San Diego","postalCode":"CALIFORNIA 92123-1881","totalCases":2},"1168":{"investigator":"Steven Cox","siteName":"Lynn Institute of Norman","latitude":"35.209973","address":"630 24th Ave Sw.","longitude":"-97.476766","totalCases":5,"postalCode":"OKLAHOMA 73069","city":"Norman"},"1167":{"totalCases":2,"city":"Kingsport","postalCode":"TN 37660","investigator":"Emily Morawski","siteName":"Holston Medical Group","latitude":"36.557416","address":"105 W Stone Dr, 3rd Fl, Ste 3B","longitude":"-82.552999"},"1013":{"address":"618 E. S St, Ste 100","longitude":"-81.368636","investigator":"Michael Dever","siteName":"Clinical Neuroscience Solutions, Inc","latitude":"28.537427","postalCode":"FL 32801","city":"Orlando","totalCases":2},"1096":{"investigator":"Van Tran","siteName":"Dr Van Tran Family Practice, Hany H. Ahmed MD & Ventavia Research Group, LLC","latitude":"29.810730","longitude":"-95.434200","address":"1919 N Loop W, Ste 250","totalCases":2,"city":"Houston","postalCode":"TX 77008"},"1082":{"totalCases":1,"postalCode":"TENNESSEE 37920","city":"Knoxville","investigator":"William Smith","siteName":"Alliance for Multispecialty Research, LLC","latitude":"35.941513","address":"1924 Alcoa Hwy, 4 and 5 Nw","longitude":"-83.945188"},"1101":{"totalCases":1,"postalCode":"NE 68025","city":"Fremont","siteName":"Methodist Physicians Clinic / CCT Research","latitude":"41.451665","investigator":"Thomas Wolf","address":"350 W 23rd St","longitude":"-96.500113"},"1128":{"latitude":"32.730420","siteName":"Ventavia Research Group, LLC","investigator":"Mark Koch","address":"1307 8th Ave, Ste 202 & Ste M1","longitude":"-97.342842","totalCases":1,"city":"Fort Worth","postalCode":"TX 76104"},"1077":{"longitude":"-76.017445","address":"409 Hooper Rd","investigator":"Suchet Patel","siteName":"Meridian Clinical Research LLC","latitude":"42.114451","postalCode":"NEW YORK 13760","city":"Endwell","totalCases":1},"1019":{"latitude":"29.510245","siteName":"Diagnostics Research Group","investigator":"Charles Andrews","address":"4410 Medical Dr, Ste 360","longitude":"-98.571134","totalCases":2,"postalCode":"TEXAS 78229","city":"San Antonio"},"1107":{"totalCases":1,"postalCode":"AL 36608","city":"Mobile","siteName":"Alliance for Multispecialty Research, LLC","latitude":"30.683890","investigator":"Harry Studdard","longitude":"-88.130755","address":"100 Memorial Hospital Dr, Annex Bldg, Ste-3B"},"1092":{"postalCode":"OH 45246","city":"Cincinnati","totalCases":2,"longitude":"-84.487138","address":"375 Glenspring Dr, 2nd F1","investigator":"Rajesh Davit","latitude":"39.292321","siteName":"Sterling Research Group, Ltd."},"1006":{"longitude":"-111.811763","address":"2295 Foothill Dr","investigator":"James Peterson","latitude":"40.721491","siteName":"J. Lewis Research Inc. / Foothill Family Clinic","postalCode":"UT 84109","city":"Salt Lake City","totalCases":5},"1071":{"city":"Omaha","postalCode":"NE 68114","totalCases":2,"address":"10040 Regency Cr, Ste 375","longitude":"-96.069489","latitude":"41.262811","siteName":"Quality Clinical Research, Inc.","investigator":"Michael Dunn"},"1125":{"city":"Norfolk","postalCode":"NE 68701","totalCases":9,"longitude":"-97.426160","address":"1410 N 13th St., Ste 5","siteName":"Meridian Clinical Research, LLC","latitude":"42.048817","investigator":"Charles Harper"},"1123":{"city":"Omaha","postalCode":"NEBRASKA 68134","totalCases":7,"address":"3319 N 107th St.","longitude":"-96.079164","siteName":"Meridian Clinical Research, LLC","latitude":"41.289274","investigator":"Brandon Essink"},"1039":{"city":"Austin","postalCode":"TX 78726","totalCases":1,"address":"11714 Wilson Parke Ave., Ste 150","longitude":"-97.849751","investigator":"Gretchen Crook","siteName":"Arc Clinical Research at Wilson Parke","latitude":"30.417878"},"1223":{"address":"2 Church St S, Ste 114","longitude":"-72.930261","investigator":"Onyema Ogbuagu","siteName":"Yale Center for Clinical Investigations","latitude":"41.301948","city":"New Haven","postalCode":"CT 06510","totalCases":2},"1047":{"investigator":"James McMurray","latitude":"34.725469","siteName":"Medical Affliated Research Center","longitude":"-86.585356","address":"303 Williams Ave, Ste 511","totalCases":1,"postalCode":"AL 35801","city":"Huntsville"},"1134":{"latitude":"36.077265","siteName":"PMG Research of Winston-Salem, LLC","investigator":"Jonathan Wilson","address":"1901 S. Hawthorne Rd, Ste 306","longitude":"-80.295588","totalCases":1,"postalCode":"NC 27103","city":"Winston-Salem"},"1135":{"totalCases":1,"postalCode":"CA 92801","city":"Anaheim","latitude":"33.850280","siteName":"Anaheim Clinical Trials, LLC","investigator":"Peter Winkle","address":"1085 N. Harbor Blvd.","longitude":"-117.924733"},"1251":{"totalCases":1,"postalCode":"ALABAMA 35216","city":"Birmingham","investigator":"Hayes Williams","siteName":"Birmingham Clinical Research Unit","latitude":"33.444924","longitude":"-86.789571","address":"2017 Cayon Rd, Ste 41"},"1068":{"investigator":"Andrew Gentry","siteName":"Bozeman Health Deaconess Hospital dba Bozeman Health Clinical Research","latitude":"45.668781","address":"915 Highland Blvd","longitude":"-111.018619","totalCases":2,"city":"Bozeman","postalCode":"MT 59715"},"1131":{"address":"948 Patterson Rd","longitude":"-84.153467","investigator":"William Randall","latitude":"39.724205","siteName":"PriMED Clinical Research","postalCode":"OHIO 45419","city":"Dayton","totalCases":2},"1149":{"postalCode":"CA 92845","city":"Garden Grove","totalCases":1,"address":"12772 Valley View St, Ste 3","longitude":"-118.034075","latitude":"33.777543","siteName":"Collaborative Neuroscience Research, LLC","investigator":"Steven Reynolds"},"1231":{"totalCases":31,"city":"Caba","postalCode":"1426","siteName":"Hospital Militar Central Cirujano Mayor Dr","latitude":"-34.569624","investigator":"Fernando Polack","longitude":"-58.437341","address":"Louis Maria Campos 726 Piso 8"},"1162":{"investigator":"Robert Riesenberg","siteName":"Atlanta Center for Medical Research","latitude":"33.740088","longitude":"-84.512626","address":"501 Fairburn Rd SW","totalCases":1,"city":"Atlanta","postalCode":"Georgia 30331"},"1235":{"address":"1801 Fairfield Ave, Ste 203","longitude":"-93.751993","siteName":"LSUHSC-Shreveport","latitude":"32.494217","investigator":"John Vanchiere","postalCode":"LA 71101","city":"Shreveport","totalCases":1},"1179":{"totalCases":1,"postalCode":"MI 48334","city":"Farmington Hills","latitude":"42.519643","siteName":"Michigan Center for Medical Research","investigator":"Steven Katzman","address":"30160 Orchard Lake Rd","longitude":"-83.359298"},"1117":{"postalCode":"MO 63141","city":"St Louis","totalCases":1,"address":"711 Old Ballas Rd, Ste 105","longitude":"-90.438865","siteName":"Sundance Clinical Research, LLC","latitude":"38.668863","investigator":"Larkin Wadsworth"},"1016":{"siteName":"Kentucky Pediatric / Adult Research","latitude":"37.808380","investigator":"Daniel Finn","address":"201 S 5th St","longitude":"-85.470766","totalCases":7,"city":"Bardstown","postalCode":"KENTUCKY 40004"},"1118":{"postalCode":"NEW YORK 13901","city":"Binghamton","totalCases":1,"address":"1290 Uppr Frnt St","longitude":"-75.893706","siteName":"Meridian Clinical Research, LLC","latitude":"42.160032","investigator":"Frank Eder"},"1089":{"investigator":"Cecil Farrington","siteName":"PMG Research of Salisbury, LLC","latitude":"35.680044","address":"410 Mocksville Ave","longitude":"-80.471300","totalCases":1,"city":"Salisbury","postalCode":"NC 28144"},"1133":{"investigator":"Howard Schwartz","siteName":"Research Centers of America","latitude":"26.032258","address":"7261 Sheridan St, Suites 210, 215, 310","longitude":"-80.234138","totalCases":1,"postalCode":"FLORIDA 33024","city":"Hollywood"},"1090":{"address":"3100 Duraleigh Rd, Ste 304","longitude":"-78.705544","latitude":"35.823982","siteName":"M3 Wake Research, Inc","investigator":"Lisa Cohen","postalCode":"NC 27612","city":"Raleigh","totalCases":2},"1111":{"address":"1679 Eagle Harbor Pkwy, Ste D","longitude":"-81.704563","investigator":"Michael Stephens","latitude":"30.100353","siteName":"Fleming Island Center for Clinical Research","city":"Fleming Island","postalCode":"FL 32003","totalCases":1},"1170":{"postalCode":"TEXAS 75246","city":"Dallas","totalCases":1,"address":"3409 Worth St, Ste 710, 725, 740","longitude":"-96.779399","latitude":"32.788375","siteName":"North Texas Infectious Deseases Consultants, P.A.","investigator":"Mezgebe Berhe"},"1009":{"address":"2295 Foothill Dr","longitude":"-111.811763","siteName":"J. Lewis Research Inc. / Foothill Family Clinic","latitude":"40.721491","investigator":"Shane Christensen","city":"Salt Lake City","postalCode":"UT 84109","totalCases":1},"1046":{"investigator":"Ernest Hendrix","latitude":"34.803263","siteName":"North Alabama Research Center, LLC","longitude":"-86.980871","address":"721 W Market St, Ste B","totalCases":1,"city":"Athens","postalCode":"AL 35801"},"1003":{"latitude":"43.192742","siteName":"Rochester Regional Health/Rochester General Hospital, Infectious Desease Department","investigator":"Edward Walsh","longitude":"-77.585667","address":"1425 Portland Avenue","totalCases":1,"postalCode":"NY 14621","city":"Rochester"},"1241":{"city":"Salvador","postalCode":"BAHIA CEP 40415-006","totalCases":2,"address":"Avenida Dendeziros do Bonfim, nÂ°161","longitude":"-38.506831","investigator":"Edson Moreira","siteName":"Hospital Santo Antonio Associacao Obras Sociais","latitude":"-12.934974"},"1141":{"address":"200 Hawkins Dr","longitude":"-91.548543","investigator":"Patricia Winokur","latitude":"41.660436","siteName":"University of Iowa Hospitals & Clinics","city":"Iowa City","postalCode":"IA 52242","totalCases":3},"1093":{"address":"4802 Sunnybrook Dr","longitude":"-96.345013","investigator":"David Ensz","latitude":"42.455354","siteName":"Meridian Clinical Research, LLC","city":"Sioux City","postalCode":"IOWA 51106","totalCases":1},"1122":{"investigator":"Curtis Donskey","siteName":"VA Northeast Ohio Healthcare System","latitude":"41.514240","address":"10701 E Blvd.","longitude":"-81.613110","totalCases":1,"postalCode":"OHIO 44106","city":"Cleveland"},"1095":{"longitude":"-97.802824","address":"4534 W Gate Blvd., Ste 110","siteName":"Tekton Research, Inc.","latitude":"30.230984","investigator":"Paul Pickrell","postalCode":"TEXAS 78745","city":"Houston","totalCases":2},"1088":{"siteName":"PMG Research of Hickory, LLC","latitude":"35.750340","investigator":"John Earl","address":"221 13th Ave P1 NW, Ste 201","longitude":"-81.341019","totalCases":2,"city":"Hickory","postalCode":"NC 28601"},"1226":{"city":"Sao Paulo","postalCode":"SP 04266-010","totalCases":7,"address":"Rua Moreira e Costa, 342 - Ipiranga","longitude":"-46.611078","siteName":"CEPIC - Centro Paulista de Investigacao Clinica e Servicos Medicos Ltda (Casa Blanca)","latitude":"-23.589737","investigator":"Cristiano Zerbini"},"1091":{"longitude":"-82.826839","address":"99 N. Brice Rd, Ste 210","investigator":"Samir Arora","latitude":"39.984484","siteName":"Aventiv Research Inc (Facility and Drug Shipment Address)","city":"Columbus","postalCode":"OHIO 43213","totalCases":1},"1072":{"city":"Huntsville","postalCode":"AL 35802","totalCases":1,"longitude":"-86.535652","address":"2089 Cecil Ashburn Dr, Ste 203","investigator":"Randle Middleton","latitude":"34.673102","siteName":"Optimal Research, LLC"},"4444":{"city":"Not Listed","postalCode":"Not Listed","totalCases":5,"longitude":"","address":"Not Listed","siteName":"Not Listed","latitude":"","investigator":"Not Listed"},"1008":{"longitude":"-90.634202","address":"17998 Chesterfield Airport Rd, Ste 100","investigator":"Timothy Jennings","latitude":"38.669244","siteName":"Clinical Research Professionals","postalCode":"MO 63005","city":"Chesterfield","totalCases":6},"1110":{"totalCases":3,"postalCode":"FLORIDA 33134","city":"Coral Gables","latitude":"25.753515","siteName":"Alliance for Multispecialty Research, LLC-Miami","investigator":"Jeffrey Rosen","longitude":"-80.262393","address":"370 Minorca Ave, Miami-Dade County, Coral Gables Section"},"1098":{"investigator":"Salma Saiger","latitude":"32.779964","siteName":"SMS Clinical Research, LLC","address":"1210 N Galloway Ave","longitude":"-96.600121","totalCases":1,"city":"Mesquite","postalCode":"TX 75149"},"1081":{"investigator":"Michael Butcher","siteName":"Sterling Research Group, Ltd.","latitude":"39.123140","longitude":"-84.508043","address":"2230 Auburn Ave, Level B","totalCases":1,"postalCode":"OH 45219","city":"Cincinnati"},"1085":{"address":"300 N Rufe Snow Dr","longitude":"-97.229835","siteName":"Ventavia Research Group, LLC","latitude":"32.937803","investigator":"Gregory Fuller","postalCode":"TX 76248","city":"Keller","totalCases":1},"1126":{"longitude":"-121.429798","address":"1650 Response Rd","latitude":"38.595276","siteName":"Kaiser Permanente Sacramento","investigator":"Nicola Klein","postalCode":"CA 95815","city":"Sacramento","totalCases":1},"1028":{"postalCode":"ND 58104","city":"Fargo","totalCases":4,"address":"4450 31st Ave S, Ste 101","longitude":"-96.860613","investigator":"Michael Lillestol","siteName":"Lillestol Research LLC","latitude":"46.833424"},"1178":{"longitude":"-96.803811","address":"1500 Church St, Ste 100","siteName":"Clinical Research Associates, Inc.","latitude":"32.750371","investigator":"Stephan Sharp","postalCode":"TEXAS 75246","city":"Dallas","totalCases":3}}}